[{"OBJECT_NAME":"STARLINK-31571","OBJECT_ID":"2024-060Q","EPOCH":"2026-03-09T13:53:05.051616","MEAN_MOTION":15.27572637,"ECCENTRICITY":7.23e-5,"INCLINATION":42.9986,"RA_OF_ASC_NODE":260.6673,"ARG_OF_PERICENTER":274.3865,"MEAN_ANOMALY":85.6904,"EPHEMERIS_TYPE":0,"CLASSIFICATION_TYPE":"U","NORAD_CAT_ID":59362,"ELEMENT_SET_NO":999,"REV_AT_EPOCH":11004,"BSTAR":1.3427e-5,"MEAN_MOTION_DOT":1.08e-6,"MEAN_MOTION_DDOT":0},{"OBJECT_NAME":"FLOCK 4G-1","OBJECT_ID":"2025-009BK","EPOCH":"2026-03-09T18:13:41.778912","MEAN_MOTION":15.27421081,"ECCENTRICITY":0.00031801,"INCLINATION":97.4059,"RA_OF_ASC_NODE":151.3158,"ARG_OF_PERICENTER":323.1401,"MEAN_ANOMALY":36.9619,"EPHEMERIS_TYPE":0,"CLASSIFICATION_TYPE":"U","NORAD_CAT_ID":62666,"ELEMENT_SET_NO":999,"REV_AT_EPOCH":6372,"BSTAR":0.00050653644,"MEAN_MOTION_DOT":0.00013534,"MEAN_MOTION_DDOT":0}]
